FLOCK 3P-49             
1 42001U 17008BF  17345.79295268  .00001505  00000-0  65705-4 0  9999
2 42001  97.4759  46.6586 0007075 317.9777  42.0917 15.23684949 45413
